IRIDIUM 166             
1 43570U 18061B   24345.40276048  .00000308  00000+0  10275-3 0  9992
2 43570  86.3955 288.1437 0001884  82.3730 277.7680 14.34213095334025
IRIDIUM 158             
1 43571U 18061C   24344.74313119  .00000760  00000+0  26430-3 0  9992
2 43571  86.3953 288.4294 0002228  78.8141 281.3305 14.34220380333891
IRIDIUM 165             
1 43572U 18061D   24345.11734367  .00000202  00000+0  65063-4 0  9994
2 43572  86.3955 288.3088 0002183  88.0178 272.1267 14.34216929333975
IRIDIUM 155             
1 43573U 18061E   24344.59090565  .00000765  00000+0  26624-3 0  9994
2 43573  86.3951 288.4254 0002033  77.7271 282.4152 14.34221193333876
IRIDIUM 154             
1 43574U 18061F   24344.78118637  .00000257  00000+0  84716-4 0  9990
2 43574  86.3953 288.4520 0002212  87.7871 272.3578 14.34218296333949
IRIDIUM 163             
1 43575U 18061G   24345.11100160  .00000058  00000+0  13761-4 0  9992
2 43575  86.3952 288.2471 0002212  79.9687 280.1758 14.34217416333962
IRIDIUM 156             
1 43576U 18061H   24344.80654789  .00000531  00000+0  18265-3 0  9998
2 43576  86.3949 288.3808 0001884  78.3285 281.8122 14.34222770333912
IRIDIUM 164             
1 43577U 18061J   24344.92706433  .00000471  00000+0  16103-3 0  9998
2 43577  86.3954 288.3620 0002069  91.8536 268.2897 14.34216677333979
